{"type": "FeatureCollection", "features": [ {"type": "Feature", "properties": {"norad_id": 66697, "name": "IRIDE FM3", "group": "last-30-days", "lat": 82.53249705665964, "lon": -15.230588275299699, "alt_km": 503.3331334032464, "timestamp": "2025-12-24T14:43:27.719929+00:00", "meta": {"OBJECT_NAME": "IRIDE FM3", "OBJECT_ID": "2025-276AH", "EPOCH": "2025-12-24T06:25:22.374048", "MEAN_MOTION": 15.18192746, "ECCENTRICITY": 0.0001337, "INCLINATION": 97.4388, "RA_OF_ASC_NODE": 69.8491, "ARG_OF_PERICENTER": 149.5304, "MEAN_ANOMALY": 210.6008, "EPHEMERIS_TYPE": 0, "CLASSIFICATION_TYPE": "U", "NORAD_CAT_ID": 66697, "ELEMENT_SET_NO": 999, "REV_AT_EPOCH": 387, "BSTAR": 0.0006010467, "MEAN_MOTION_DOT": 0.00012233, "MEAN_MOTION_DDOT": 0}, "tle": {"line1": "1 66697U 25276AH  25358.26762007  .00012233  00000+0  60105-3 0  9994", "line2": "2 66697  97.4388  69.8491 0001337 149.5304 210.6008 15.18192746  3871"}}, "geometry": {"type": "Point", "coordinates": [-15.230588275299699, 82.53249705665964]}}, {"type": "Feature", "properties": {"norad_id": 66698, "name": "IRIDE FM4", "group": "last-30-days", "lat": 14.5944919340556, "lon": 68.20873364662617, "alt_km": 515.8714049656046, "timestamp": "2025-12-24T14:43:27.719940+00:00", "meta": {"OBJECT_NAME": "IRIDE FM4", "OBJECT_ID": "2025-276AJ", "EPOCH": "2025-12-24T08:00:03.000384", "MEAN_MOTION": 15.17393336, "ECCENTRICITY": 0.00028168, "INCLINATION": 97.4387, "RA_OF_ASC_NODE": 69.8832, "ARG_OF_PERICENTER": 252.4343, "MEAN_ANOMALY": 33.0288, "EPHEMERIS_TYPE": 0, "CLASSIFICATION_TYPE": "U", "NORAD_CAT_ID": 66698, "ELEMENT_SET_NO": 999, "REV_AT_EPOCH": 130, "BSTAR": -0.0025918163, "MEAN_MOTION_DOT": -0.00051456, "MEAN_MOTION_DDOT": 0}, "tle": {"line1": "1 66698U 25276AJ  25358.33336806 -.00051456  00000+0 -25918-2 0  9991", "line2": "2 66698  97.4387  69.8832 0002816 252.4343  33.0288 15.17393336  1300"}}, "geometry": {"type": "Point", "coordinates": [68.20873364662617, 14.5944919340556]}}, {"type": "Feature", "properties": {"norad_id": 66699, "name": "IRIDE FM5", "group": "last-30-days", "lat": 16.024362362032665, "lon": 68.0125689356132, "alt_km": 515.6924500681553, "timestamp": "2025-12-24T14:43:27.719952+00:00", "meta": {"OBJECT_NAME": "IRIDE FM5", "OBJECT_ID": "2025-276AK", "EPOCH": "2025-12-24T03:34:29.520192", "MEAN_MOTION": 15.17413849, "ECCENTRICITY": 0.00030917, "INCLINATION": 97.4401, "RA_OF_ASC_NODE": 69.7072, "ARG_OF_PERICENTER": 249.791, "MEAN_ANOMALY": 110.2991, "EPHEMERIS_TYPE": 0, "CLASSIFICATION_TYPE": "U", "NORAD_CAT_ID": 66699, "ELEMENT_SET_NO": 999, "REV_AT_EPOCH": 385, "BSTAR": 0.0010823499, "MEAN_MOTION_DOT": 0.00021623, "MEAN_MOTION_DDOT": 0}, "tle": {"line1": "1 66699U 25276AK  25358.14895278  .00021623  00000+0  10823-2 0  9994", "line2": "2 66699  97.4401  69.7072 0003091 249.7910 110.2991 15.17413849  3851"}}, "geometry": {"type": "Point", "coordinates": [68.0125689356132, 16.024362362032665]}}, {"type": "Feature", "properties": {"norad_id": 66700, "name": "IRIDE FM6", "group": "last-30-days", "lat": 81.90771873543997, "lon": -42.9679105928799, "alt_km": 503.10961476090324, "timestamp": "2025-12-24T14:43:27.719962+00:00", "meta": {"OBJECT_NAME": "IRIDE FM6", "OBJECT_ID": "2025-276AL", "EPOCH": "2025-12-24T06:24:23.819904", "MEAN_MOTION": 15.18245449, "ECCENTRICITY": 0.00017516, "INCLINATION": 97.4421, "RA_OF_ASC_NODE": 69.8609, "ARG_OF_PERICENTER": 156.5685, "MEAN_ANOMALY": 203.5629, "EPHEMERIS_TYPE": 0, "CLASSIFICATION_TYPE": "U", "NORAD_CAT_ID": 66700, "ELEMENT_SET_NO": 999, "REV_AT_EPOCH": 387, "BSTAR": 0.00053054317, "MEAN_MOTION_DOT": 0.00010804, "MEAN_MOTION_DDOT": 0}, "tle": {"line1": "1 66700U 25276AL  25358.26694236  .00010804  00000+0  53054-3 0  9994", "line2": "2 66700  97.4421  69.8609 0001751 156.5685 203.5629 15.18245449  3874"}}, "geometry": {"type": "Point", "coordinates": [-42.9679105928799, 81.90771873543997]}}, {"type": "Feature", "properties": {"norad_id": 66701, "name": "IRIDE FM7", "group": "last-30-days", "lat": 15.799893682677256, "lon": 68.04830446845362, "alt_km": 516.8673070977966, "timestamp": "2025-12-24T14:43:27.719974+00:00", "meta": {"OBJECT_NAME": "IRIDE FM7", "OBJECT_ID": "2025-276AM", "EPOCH": "2025-12-23T22:49:39.683136", "MEAN_MOTION": 15.17413272, "ECCENTRICITY": 0.0004485, "INCLINATION": 97.4419, "RA_OF_ASC_NODE": 69.5173, "ARG_OF_PERICENTER": 239.7436, "MEAN_ANOMALY": 120.3354, "EPHEMERIS_TYPE": 0, "CLASSIFICATION_TYPE": "U", "NORAD_CAT_ID": 66701, "ELEMENT_SET_NO": 999, "REV_AT_EPOCH": 382, "BSTAR": -0.00094395, "MEAN_MOTION_DOT": -0.0001888, "MEAN_MOTION_DDOT": 0}, "tle": {"line1": "1 66701U 25276AM  25357.95115374 -.00018880  00000+0 -94395-3 0  9998", "line2": "2 66701  97.4419  69.5173 0004485 239.7436 120.3354 15.17413272  3826"}}, "geometry": {"type": "Point", "coordinates": [68.04830446845362, 15.799893682677256]}}, {"type": "Feature", "properties": {"norad_id": 66702, "name": "IRIDE FM8", "group": "last-30-days", "lat": 16.88137430356497, "lon": 67.8890905049935, "alt_km": 515.3065196403586, "timestamp": "2025-12-24T14:43:27.719984+00:00", "meta": {"OBJECT_NAME": "IRIDE FM8", "OBJECT_ID": "2025-276AN", "EPOCH": "2025-12-24T03:34:15.707424", "MEAN_MOTION": 15.17412942, "ECCENTRICITY": 0.00028788, "INCLINATION": 97.4396, "RA_OF_ASC_NODE": 69.7053, "ARG_OF_PERICENTER": 257.4973, "MEAN_ANOMALY": 102.5939, "EPHEMERIS_TYPE": 0, "CLASSIFICATION_TYPE": "U", "NORAD_CAT_ID": 66702, "ELEMENT_SET_NO": 999, "REV_AT_EPOCH": 385, "BSTAR": 0.00054043842, "MEAN_MOTION_DOT": 0.00010747, "MEAN_MOTION_DDOT": 0}, "tle": {"line1": "1 66702U 25276AN  25358.14879291  .00010747  00000+0  54044-3 0  9995", "line2": "2 66702  97.4396  69.7053 0002878 257.4973 102.5939 15.17412942  3854"}}, "geometry": {"type": "Point", "coordinates": [67.8890905049935, 16.88137430356497]}}, {"type": "Feature", "properties": {"norad_id": 66703, "name": "PELICAN-6", "group": "last-30-days", "lat": 24.163168281197713, "lon": 66.80555753692006, "alt_km": 513.8361234578788, "timestamp": "2025-12-24T14:43:27.719997+00:00", "meta": {"OBJECT_NAME": "PELICAN-6", "OBJECT_ID": "2025-276AP", "EPOCH": "2025-12-23T10:07:52.193568", "MEAN_MOTION": 15.17422387, "ECCENTRICITY": 0.00018059, "INCLINATION": 97.4406, "RA_OF_ASC_NODE": 68.9965, "ARG_OF_PERICENTER": 230.3066, "MEAN_ANOMALY": 129.8009, "EPHEMERIS_TYPE": 0, "CLASSIFICATION_TYPE": "U", "NORAD_CAT_ID": 66703, "ELEMENT_SET_NO": 999, "REV_AT_EPOCH": 374, "BSTAR": 0.0031748632, "MEAN_MOTION_DOT": 0.00063935, "MEAN_MOTION_DDOT": 0}, "tle": {"line1": "1 66703U 25276AP  25357.42213187  .00063935  00000+0  31749-2 0  9995", "line2": "2 66703  97.4406  68.9965 0001805 230.3066 129.8009 15.17422387  3744"}}, "geometry": {"type": "Point", "coordinates": [66.80555753692006, 24.163168281197713]}}, {"type": "Feature", "properties": {"norad_id": 66704, "name": "FLOCK 4H-1", "group": "last-30-days", "lat": 80.67622501694434, "lon": 17.458270978199334, "alt_km": 503.86982918972717, "timestamp": "2025-12-24T14:43:27.720010+00:00", "meta": {"OBJECT_NAME": "FLOCK 4H-1", "OBJECT_ID": "2025-276AQ", "EPOCH": "2025-12-24T06:26:40.027776", "MEAN_MOTION": 15.18107588, "ECCENTRICITY": 0.0002065, "INCLINATION": 97.4381, "RA_OF_ASC_NODE": 69.8432, "ARG_OF_PERICENTER": 164.8909, "MEAN_ANOMALY": 195.2387, "EPHEMERIS_TYPE": 0, "CLASSIFICATION_TYPE": "U", "NORAD_CAT_ID": 66704, "ELEMENT_SET_NO": 999, "REV_AT_EPOCH": 387, "BSTAR": 0.00056015696, "MEAN_MOTION_DOT": 0.00011367, "MEAN_MOTION_DDOT": 0}, "tle": {"line1": "1 66704U 25276AQ  25358.26851884  .00011367  00000+0  56016-3 0  9998", "line2": "2 66704  97.4381  69.8432 0002065 164.8909 195.2387 15.18107588  3876"}}, "geometry": {"type": "Point", "coordinates": [17.458270978199334, 80.67622501694434]}}, {"type": "Feature", "properties": {"norad_id": 66705, "name": "FLOCK 4H-2", "group": "last-30-days", "lat": 82.0638519941217, "lon": 0.6139021568934604, "alt_km": 503.5407067568576, "timestamp": "2025-12-24T14:43:27.720020+00:00", "meta": {"OBJECT_NAME": "FLOCK 4H-2", "OBJECT_ID": "2025-276AR", "EPOCH": "2025-12-24T06:25:55.813440", "MEAN_MOTION": 15.18155807, "ECCENTRICITY": 0.00014194, "INCLINATION": 97.4376, "RA_OF_ASC_NODE": 69.8439, "ARG_OF_PERICENTER": 154.1923, "MEAN_ANOMALY": 205.9382, "EPHEMERIS_TYPE": 0, "CLASSIFICATION_TYPE": "U", "NORAD_CAT_ID": 66705, "ELEMENT_SET_NO": 999, "REV_AT_EPOCH": 387, "BSTAR": 0.0004423614, "MEAN_MOTION_DOT": 8.972e-05, "MEAN_MOTION_DDOT": 0}, "tle": {"line1": "1 66705U 25276AR  25358.26800710  .00008972  00000+0  44236-3 0  9990", "line2": "2 66705  97.4376  69.8439 0001419 154.1923 205.9382 15.18155807  3879"}}, "geometry": {"type": "Point", "coordinates": [0.6139021568934604, 82.0638519941217]}}, {"type": "Feature", "properties": {"norad_id": 66706, "name": "FLOCK 4H-3", "group": "last-30-days", "lat": 28.22346028032019, "lon": 66.15912548456232, "alt_km": 514.0212338830961, "timestamp": "2025-12-24T14:43:27.720031+00:00", "meta": {"OBJECT_NAME": "FLOCK 4H-3", "OBJECT_ID": "2025-276AS", "EPOCH": "2025-12-24T05:06:13.666752", "MEAN_MOTION": 15.17490569, "ECCENTRICITY": 0.00029546, "INCLINATION": 97.4441, "RA_OF_ASC_NODE": 69.7893, "ARG_OF_PERICENTER": 239.3918, "MEAN_ANOMALY": 120.7024, "EPHEMERIS_TYPE": 0, "CLASSIFICATION_TYPE": "U", "NORAD_CAT_ID": 66706, "ELEMENT_SET_NO": 999, "REV_AT_EPOCH": 386, "BSTAR": 0.00031319213, "MEAN_MOTION_DOT": 6.21e-05, "MEAN_MOTION_DDOT": 0}, "tle": {"line1": "1 66706U 25276AS  25358.21265818  .00006210  00000+0  31319-3 0  9991", "line2": "2 66706  97.4441  69.7893 0002954 239.3918 120.7024 15.17490569  3863"}}, "geometry": {"type": "Point", "coordinates": [66.15912548456232, 28.22346028032019]}}]}